{
  "type": "FeatureCollection",
  "features": [
    {
      "type": "Feature",
      "properties": {
        "norad_id": 31307,
        "name": "GALAXY 17 (G-17)",
        "group": "intelsat",
        "lat": -0.6719615665709621,
        "lon": 66.3393368046593,
        "alt_km": 35809.28543528283,
        "timestamp": "2025-12-24T03:53:29.309978+00:00",
        "meta_object_name": "GALAXY 17 (G-17)",
        "meta_object_id": "2007-016B",
        "meta_epoch": "2025-12-23T12:43:41.172960",
        "meta_mean_motion": 1.00269516,
        "meta_eccentricity": 0.0005358,
        "meta_inclination": 2.5254,
        "meta_ra_of_asc_node": 82.1638,
        "meta_arg_of_pericenter": 172.276,
        "meta_mean_anomaly": 303.8129,
        "meta_ephemeris_type": 0,
        "meta_classification_type": "U",
        "meta_norad_cat_id": 31307,
        "meta_element_set_no": 999,
        "meta_rev_at_epoch": 6804,
        "meta_bstar": 0,
        "meta_mean_motion_dot": -1.86e-06,
        "meta_mean_motion_ddot": 0,
        "tle_line1": "1 31307U 07016B   25357.53033765 -.00000186  00000+0  00000+0 0  9996",
        "tle_line2": "2 31307   2.5254  82.1638 0005358 172.2760 303.8129  1.00269516 68042"
      },
      "geometry": {
        "type": "Point",
        "coordinates": [
          66.3393368046593,
          -0.6719615665709621
        ]
      }
    },
    {
      "type": "Feature",
      "properties": {
        "norad_id": 31862,
        "name": "DIRECTV 10",
        "group": "intelsat",
        "lat": 0.002200388194830224,
        "lon": 48.51407246450759,
        "alt_km": 35787.06031783822,
        "timestamp": "2025-12-24T03:53:29.309990+00:00",
        "meta_object_name": "DIRECTV 10",
        "meta_object_id": "2007-032A",
        "meta_epoch": "2025-12-23T16:04:04.914912",
        "meta_mean_motion": 1.00272171,
        "meta_eccentricity": 2.72e-05,
        "meta_inclination": 0.0092,
        "meta_ra_of_asc_node": 113.2913,
        "meta_arg_of_pericenter": 95.817,
        "meta_mean_anomaly": 21.5753,
        "meta_ephemeris_type": 0,
        "meta_classification_type": "U",
        "meta_norad_cat_id": 31862,
        "meta_element_set_no": 999,
        "meta_rev_at_epoch": 4383,
        "meta_bstar": 0,
        "meta_mean_motion_dot": -8.2e-07,
        "meta_mean_motion_ddot": 0,
        "tle_line1": "1 31862U 07032A   25357.66950133 -.00000082  00000+0  00000+0 0  9996",
        "tle_line2": "2 31862   0.0092 113.2913 0000272  95.8170  21.5753  1.00272171 43836"
      },
      "geometry": {
        "type": "Point",
        "coordinates": [
          48.51407246450759,
          0.002200388194830224
        ]
      }
    },
    {
      "type": "Feature",
      "properties": {
        "norad_id": 32253,
        "name": "INTELSAT 11 (IS-11)",
        "group": "intelsat",
        "lat": -2.8576388691715047,
        "lon": -33.14338705613788,
        "alt_km": 36122.36498225771,
        "timestamp": "2025-12-24T03:53:29.310002+00:00",
        "meta_object_name": "INTELSAT 11 (IS-11)",
        "meta_object_id": "2007-044B",
        "meta_epoch": "2025-12-23T17:23:57.267168",
        "meta_mean_motion": 0.99052963,
        "meta_eccentricity": 0.0008569,
        "meta_inclination": 3.107,
        "meta_ra_of_asc_node": 80.8548,
        "meta_arg_of_pericenter": 170.4374,
        "meta_mean_anomaly": 279.6071,
        "meta_ephemeris_type": 0,
        "meta_classification_type": "U",
        "meta_norad_cat_id": 32253,
        "meta_element_set_no": 999,
        "meta_rev_at_epoch": 6671,
        "meta_bstar": 0,
        "meta_mean_motion_dot": -1.53e-06,
        "meta_mean_motion_ddot": 0,
        "tle_line1": "1 32253U 07044B   25357.72496837 -.00000153  00000+0  00000+0 0  9996",
        "tle_line2": "2 32253   3.1070  80.8548 0008569 170.4374 279.6071  0.99052963 66710"
      },
      "geometry": {
        "type": "Point",
        "coordinates": [
          -33.14338705613788,
          -2.8576388691715047
        ]
      }
    },
    {
      "type": "Feature",
      "properties": {
        "norad_id": 32388,
        "name": "HORIZONS-2",
        "group": "intelsat",
        "lat": -0.1786572115923638,
        "lon": 77.53834432790029,
        "alt_km": 35805.14356277704,
        "timestamp": "2025-12-24T03:53:29.310014+00:00",
        "meta_object_name": "HORIZONS-2",
        "meta_object_id": "2007-063B",
        "meta_epoch": "2025-12-23T12:31:54.064992",
        "meta_mean_motion": 1.00270354,
        "meta_eccentricity": 0.0004694,
        "meta_inclination": 2.1479,
        "meta_ra_of_asc_node": 82.8448,
        "meta_arg_of_pericenter": 195.6176,
        "meta_mean_anomaly": 288.034,
        "meta_ephemeris_type": 0,
        "meta_classification_type": "U",
        "meta_norad_cat_id": 32388,
        "meta_element_set_no": 999,
        "meta_rev_at_epoch": 6605,
        "meta_bstar": 0,
        "meta_mean_motion_dot": -2.33e-06,
        "meta_mean_motion_ddot": 0,
        "tle_line1": "1 32388U 07063B   25357.52215353 -.00000233  00000+0  00000+0 0  9995",
        "tle_line2": "2 32388   2.1479  82.8448 0004694 195.6176 288.0340  1.00270354 66055"
      },
      "geometry": {
        "type": "Point",
        "coordinates": [
          77.53834432790029,
          -0.1786572115923638
        ]
      }
    },
    {
      "type": "Feature",
      "properties": {
        "norad_id": 32729,
        "name": "DIRECTV 11",
        "group": "intelsat",
        "lat": 0.020608664544204874,
        "lon": 52.067573207425276,
        "alt_km": 35789.08408048653,
        "timestamp": "2025-12-24T03:53:29.310026+00:00",
        "meta_object_name": "DIRECTV 11",
        "meta_object_id": "2008-013A",
        "meta_epoch": "2025-12-21T16:09:00.789984",
        "meta_mean_motion": 1.00267418,
        "meta_eccentricity": 8.567e-05,
        "meta_inclination": 0.0458,
        "meta_ra_of_asc_node": 200.3144,
        "meta_arg_of_pericenter": 330.5483,
        "meta_mean_anomaly": 62.6867,
        "meta_ephemeris_type": 0,
        "meta_classification_type": "U",
        "meta_norad_cat_id": 32729,
        "meta_element_set_no": 999,
        "meta_rev_at_epoch": 4381,
        "meta_bstar": 0,
        "meta_mean_motion_dot": -1.03e-06,
        "meta_mean_motion_ddot": 0,
        "tle_line1": "1 32729U 08013A   25355.67292581 -.00000103  00000+0  00000+0 0  9998",
        "tle_line2": "2 32729   0.0458 200.3144 0000856 330.5483  62.6867  1.00267418 43811"
      },
      "geometry": {
        "type": "Point",
        "coordinates": [
          52.067573207425276,
          0.020608664544204874
        ]
      }
    },
    {
      "type": "Feature",
      "properties": {
        "norad_id": 32951,
        "name": "GALAXY 18 (G-18)",
        "group": "intelsat",
        "lat": 0.01647916927926531,
        "lon": 28.33060134851387,
        "alt_km": 35790.455765923776,
        "timestamp": "2025-12-24T03:53:29.310038+00:00",
        "meta_object_name": "GALAXY 18 (G-18)",
        "meta_object_id": "2008-024A",
        "meta_epoch": "2025-12-23T17:40:55.643232",
        "meta_mean_motion": 1.00271951,
        "meta_eccentricity": 0.0002962,
        "meta_inclination": 0.0145,
        "meta_ra_of_asc_node": 299.5759,
        "meta_arg_of_pericenter": 337.9968,
        "meta_mean_anomaly": 317.1726,
        "meta_ephemeris_type": 0,
        "meta_classification_type": "U",
        "meta_norad_cat_id": 32951,
        "meta_element_set_no": 999,
        "meta_rev_at_epoch": 4409,
        "meta_bstar": 0,
        "meta_mean_motion_dot": 4.6e-07,
        "meta_mean_motion_ddot": 0,
        "tle_line1": "1 32951U 08024A   25357.73675513  .00000046  00000+0  00000+0 0  9991",
        "tle_line2": "2 32951   0.0145 299.5759 0002962 337.9968 317.1726  1.00271951 44092"
      },
      "geometry": {
        "type": "Point",
        "coordinates": [
          28.33060134851387,
          0.01647916927926531
        ]
      }
    },
    {
      "type": "Feature",
      "properties": {
        "norad_id": 33153,
        "name": "INTELSAT 25 (IS-25)",
        "group": "intelsat",
        "lat": 1.3869708685837678,
        "lon": 119.761769789545,
        "alt_km": 35803.5375969438,
        "timestamp": "2025-12-24T03:53:29.310050+00:00",
        "meta_object_name": "INTELSAT 25 (IS-25)",
        "meta_object_id": "2008-034A",
        "meta_epoch": "2025-12-23T18:07:08.131872",
        "meta_mean_motion": 1.00272495,
        "meta_eccentricity": 0.0004853,
        "meta_inclination": 2.2543,
        "meta_ra_of_asc_node": 82.5322,
        "meta_arg_of_pericenter": 187.1953,
        "meta_mean_anomaly": 63.098,
        "meta_ephemeris_type": 0,
        "meta_classification_type": "U",
        "meta_norad_cat_id": 33153,
        "meta_element_set_no": 999,
        "meta_rev_at_epoch": 6393,
        "meta_bstar": 0,
        "meta_mean_motion_dot": -2.04e-06,
        "meta_mean_motion_ddot": 0,
        "tle_line1": "1 33153U 08034A   25357.75495523 -.00000204  00000+0  00000+0 0  9997",
        "tle_line2": "2 33153   2.2543  82.5322 0004853 187.1953  63.0980  1.00272495 63936"
      },
      "geometry": {
        "type": "Point",
        "coordinates": [
          119.761769789545,
          1.3869708685837678
        ]
      }
    }
  ]
}